STARLINK-32812          
1 63038U 25034K   25066.41668981 -.00070610  00000+0 -48120-3 0  9999
2 63038  53.1600 181.2032 0001192  96.1339 308.1668 15.74220297  3732
STARLINK-32811          
1 63039U 25034L   25066.16668981 -.01068979  00000+0 -75988-2 0  9999
2 63039  53.1602 182.5001 0000918  64.9660 335.0687 15.75702084  3695
STARLINK-32832          
1 63040U 25034M   25066.16668981 -.01085051  00000+0 -77725-2 0  9992
2 63040  53.1602 182.4957 0000947  67.3701 334.9068 15.75566104  3693
STARLINK-32820          
1 63041U 25034N   25066.41668981 -.00785209  00000+0 -57283-2 0  9999
2 63041  53.1602 181.2484 0000752  70.3396 312.5379 15.74774237  3733
STARLINK-32795          
1 63042U 25034P   25066.41668981 -.00653718  00000+0 -47195-2 0  9990
2 63042  53.1603 181.2441 0001065  80.0047 304.8794 15.74650752  3737
STARLINK-32827          
1 63043U 25034Q   25066.41668981 -.00260902  00000+0 -18205-2 0  9990
2 63043  53.1602 181.2354 0001053  68.9689 319.9319 15.74343429  3835
STARLINK-32735          
1 63044U 25034R   25066.41668981 -.00129418  00000+0 -89045-3 0  9998
2 63044  53.1602 181.2311 0001229  78.5180 312.3476 15.74253703  3732
STARLINK-32828          
1 63045U 25034S   25066.41668981 -.00394460  00000+0 -27857-2 0  9992
2 63045  53.1602 181.2393 0000842  81.7499 305.1770 15.74446496  3833
STARLINK-32738          
1 63046U 25034T   25066.41668981  .00016457  00000+0  11654-3 0  9997
2 63046  53.1602 181.2225 0001088  85.7149 309.0194 15.74169126  3731
STARLINK-32590          
1 63047U 25034U   25066.41668981 -.00035738  00000+0 -24071-3 0  9990
2 63047  53.1601 181.2272 0001046  82.1325 310.6830 15.74193333  3736
STARLINK-32790          
1 63048U 25034V   25066.41668981 -.00005460  00000+0 -33010-4 0  9994
2 63048  53.1601 181.2143 0001340  74.9474 323.6098 15.74186195  3834
STARLINK-32829          
1 63049U 25034W   25066.41668981 -.00000207  00000+0  28823-5 0  9995
2 63049  53.1601 181.2191 0001214  68.8168 327.8349 15.74177106  3736
STARLINK-32816          
1 63050U 25034X   25066.41668981 -.00020216  00000+0 -13405-3 0  9998
2 63050  53.1601 181.2106 0000788  63.0880 337.3857 15.74193371  3739
STARLINK-32835          
1 63051U 25034Y   25066.16668981 -.00000912  00000+0 -19312-5 0  9997
2 63051  53.1599 182.4473 0001150  80.3562 344.4598 15.74180587  3689
STARLINK-11550 [DTC]    
1 63052U 25035A   25066.16668981 -.00564227  00000+0 -21418-2 0  9990
2 63052  43.0011  74.3554 0001317 274.5494 236.5036 15.87939900  3371
STARLINK-11563 [DTC]    
1 63053U 25035B   25066.41668981 -.00484911  00000+0 -18124-2 0  9990
2 63053  43.0009  72.7841 0001672 291.2168 221.0140 15.88067526  3303
STARLINK-11347 [DTC]    
1 63054U 25035C   25066.16668981 -.00534145  00000+0 -18996-2 0  9995
2 63054  43.0006  74.2747 0001618 283.3940 259.4441 15.89163034  3371
STARLINK-11558 [DTC]    
1 63055U 25035D   25066.16668981 -.00543625  00000+0 -19735-2 0  9991
2 63055  43.0009  74.3012 0001685 279.1108 253.3784 15.88777739  3267
STARLINK-11392 [DTC]    
1 63056U 25035E   25066.41668981 -.00453243  00000+0 -15916-2 0  9993
2 63056  43.0009  72.7022 0001834 286.4650 258.3111 15.89231129  3415
STARLINK-11406 [DTC]    
1 63057U 25035F   25066.41668981 -.00438502  00000+0 -14836-2 0  9995
2 63057  43.0007  72.6521 0001600 292.7845 271.6958 15.89929620  3219
STARLINK-11418 [DTC]    
1 63058U 25035G   25065.75003472 -.00484759  00000+0 -16202-2 0  9994
2 63058  43.0010  76.8068 0000944 278.9192  55.2102 15.90273410  3169
STARLINK-11509 [DTC]    
1 63059U 25035H   25066.41668981 -.00430038  00000+0 -14293-2 0  9990
2 63059  43.0007  72.6285 0001786 291.1356 282.6472 15.90256761  2227
STARLINK-11403 [DTC]    
1 63060U 25035J   25066.41668981 -.00423480  00000+0 -13837-2 0  9998
2 63060  43.0008  72.6071 0001867 291.3772 291.0026 15.90573232  2221
STARLINK-11409 [DTC]    
1 63061U 25035K   25066.41668981 -.00412783  00000+0 -13264-2 0  9997
2 63061  43.0006  72.5860 0001627 291.2931 299.2453 15.90874898  3413
STARLINK-11412 [DTC]    
1 63062U 25035L   25066.41668981 -.00430405  66534-4 -12965-2 0  9995
2 63062  43.0007  72.5628 0001607 291.6719 308.1779 15.91172450  3410
STARLINK-11399 [DTC]    
1 63063U 25035M   25066.41668981 -.00430916  66852-4 -12787-2 0  9998
2 63063  43.0010  72.5410 0001767 290.9974 317.6677 15.91462204  3417
STARLINK-11408 [DTC]    
1 63064U 25035N   25066.41668981 -.00415740  63072-4 -12162-2 0  9995
2 63064  43.0009  72.5190 0001818 292.9011 324.3827 15.91731356  3411
STARLINK-33635          
1 63065U 25035P   25065.75003472 -.01007033  00000+0 -40058-2 0  9995
2 63065  42.9999  76.6674 0001769 285.2518 102.8436 15.88012772  3338
STARLINK-33622          
1 63066U 25035Q   25065.75003472 -.01010788  00000+0 -40241-2 0  9991
2 63066  42.9999  76.6577 0001771 284.0981 108.1344 15.88004946  3336
STARLINK-33628          
1 63067U 25035R   25065.75003472 -.01020165  00000+0 -40625-2 0  9998
2 63067  42.9998  76.6508 0001519 279.6788 115.0723 15.88024558  3334
STARLINK-33627          
1 63068U 25035S   25066.16668981 -.01077215  00000+0 -45296-2 0  9994
2 63068  42.9997  74.0563 0001301 271.9636 356.4447 15.87078269  3378
STARLINK-33620          
1 63069U 25035T   25066.41668981 -.01065535  00000+0 -46303-2 0  9995
2 63069  42.9996  72.4833 0001650 289.5030 340.7525 15.86384591  3415
STARLINK-33604          
1 63070U 25035U   25066.16668981 -.01049551  00000+0 -43942-2 0  9995
2 63070  42.9993  74.0660 0001755 277.1386 347.0052 15.87093103  3370
STARLINK-33624          
1 63071U 25035V   25066.16668981 -.01086748  00000+0 -45812-2 0  9993
2 63071  42.9994  74.0450 0001301 271.8297   0.7661 15.87050988  3270
STARLINK-33623          
1 63072U 25035W   25065.75003472 -.01099767  00000+0 -44254-2 0  9990
2 63072  42.9996  76.6049 0001523 283.0202 129.7733 15.88006550  3338
STARLINK-33586          
1 63073U 25035X   25066.41668981 -.01074775  00000+0 -46749-2 0  9990
2 63073  42.9990  72.4757 0001746 290.4309 342.2427 15.86386786  3422
STARLINK-33605          
1 63074U 25035Y   25066.41668981 -.01103580  00000+0 -48248-2 0  9994
2 63074  42.9990  72.4654 0001612 291.6206 345.1621 15.86355937  3411
ZHONGXING-10R           
1 63075U 25036A   25063.79643744 -.00000357  00000+0  00000+0 0  9991
2 63075   0.0713 295.7833 0001950  79.5828 200.1511  1.00269117   237
CZ-3B R/B               
1 63076U 25036B   25055.05394378  .00059053  12400-5  46825-2 0  9995
2 63076  27.6838 331.3643 7300243 180.7131 177.9389  2.28429853    31
STARLINK-32839          
1 63077U 25037A   25066.16668981 -.00741209  17099-3 -24042-2 0  9992
2 63077  69.9924 218.4647 0003894 276.6587 277.3863 15.90516730  3063
STARLINK-32821          
1 63078U 25037B   25066.16668981 -.00744310  17240-3 -24091-2 0  9991
2 63078  69.9924 218.4614 0003906 276.6197 280.1818 15.90559230  2949
STARLINK-32817          
1 63079U 25037C   25065.75003472 -.00744181  17353-3 -23258-2 0  9999
2 63079  69.9928 219.6659 0004064 278.3676  56.4288 15.91244926  2953
STARLINK-32906          
1 63080U 25037D   25065.75003472 -.00745372  17422-3 -23180-2 0  9995
2 63080  69.9927 219.6601 0004196 276.9345  62.6325 15.91340941  3062
STARLINK-32895          
1 63081U 25037E   25065.75003472 -.00742710  17299-3 -23147-2 0  9994
2 63081  69.9924 219.6625 0004154 278.1643  59.3411 15.91298824  2908
STARLINK-32933          
1 63082U 25037F   25066.16668981 -.00814985  20453-3 -26023-2 0  9999
2 63082  69.9923 218.4443 0003812 277.6864 293.4194 15.90837058  3055
STARLINK-32932          
1 63083U 25037G   25066.16668981 -.00797063  19617-3 -25513-2 0  9990
2 63083  69.9924 218.4478 0003900 274.5320 293.9875 15.90785843  2915
STARLINK-32908          
1 63084U 25037H   25066.16668981 -.00826053  20995-3 -26221-2 0  9991
2 63084  69.9923 218.4359 0003874 276.9108 301.2297 15.90954214  2813
STARLINK-32505          
1 63085U 25037J   25066.16668981 -.00810005  20234-3 -25786-2 0  9993
2 63085  69.9924 218.4398 0003860 274.9104 300.1097 15.90895266  3073
STARLINK-32914          
1 63086U 25037K   25066.16668981 -.00829045  21149-3 -26238-2 0  9997
2 63086  69.9924 218.4319 0003847 277.7928 303.9147 15.91013006  3125
STARLINK-32918          
1 63087U 25037L   25066.16668981 -.00821678  20813-3 -25933-2 0  9990
2 63087  69.9924 218.4285 0003867 274.8641 310.1736 15.91065974  3125
STARLINK-32912          
1 63088U 25037M   25066.16668981 -.00832417  21328-3 -26222-2 0  9998
2 63088  69.9924 218.4260 0003872 276.3436 310.4439 15.91104762  3126
STARLINK-32910          
1 63089U 25037N   25066.41668981 -.00834323  21348-3 -26731-2 0  9992
2 63089  69.9926 217.6970 0003888 273.3702 308.1633 15.90772752  3161
STARLINK-32903          
1 63090U 25037P   25066.41668981 -.00847116  21969-3 -27071-2 0  9995
2 63090  69.9925 217.6939 0003928 273.0416 311.3070 15.90824979  2799
STARLINK-32925          
1 63091U 25037Q   25066.41668981 -.00870823  23137-3 -27743-2 0  9992
2 63091  69.9926 217.6897 0003947 273.3247 314.5487 15.90888793  3107
STARLINK-32924          
1 63092U 25037R   25066.16668981 -.00864308  22922-3 -26900-2 0  9991
2 63092  69.9924 218.4110 0003891 275.6963 323.8954 15.91345231  3121
STARLINK-32900          
1 63093U 25037S   25066.16668981 -.00882781  23851-3 -27399-2 0  9992
2 63093  69.9927 218.4079 0003867 275.1035 327.2117 15.91402126  2920
STARLINK-32927          
1 63094U 25037T   25066.16668981 -.00886741  24062-3 -27446-2 0  9991
2 63094  69.9923 218.4040 0003955 274.7047 330.6292 15.91455947  3080
STARLINK-32907          
1 63095U 25037U   25066.16668981 -.00898557  24676-3 -27721-2 0  9997
2 63095  69.9922 218.3992 0003927 275.3482 333.8794 15.91521560  3070
STARLINK-32911          
1 63096U 25037V   25066.16668981 -.00900544  24788-3 -27719-2 0  9999
2 63096  69.9923 218.3963 0003901 276.1224 335.6500 15.91566471  3126
STARLINK-32923          
1 63097U 25037W   25066.16668981 -.00916353  25625-3 -28063-2 0  9999
2 63097  69.9922 218.3893 0003955 274.4470 342.6624 15.91667074  3127
